UniversityName,Icon,WorldRanking,Description,RegionId,CountryId,Address,AcademicCalendar,AcademicCalendarLink,GpaRequirement,NoOfPlacesSem1,NoOfPlacesSem2,IgpaTenPercentile,IgpaNinetyPercentile,Accommodation,Insurance,Visa,HostUniversityWebsite,HostUniversityExchangeWebsite,CourseCatalogLink,CreditLoadMin,CreditLoadMax,CreditTransferRate,ApplicationDeadline,Latitude,Longitude,img1,img2,img3,img4,img5,img6
National University of Singapore (NUS),https://www.nus.edu.sg/images/default-source/identity-images/NUS_logo_full-horizontal.jpg,11,"A leading global university centred in Asia, the National University of Singapore (NUS) is Singapore’s flagship university, which offers a global approach to education and research, with a focus on Asian perspectives and expertise. NUS has 17 faculties and schools across three campuses. Its transformative education includes a broad-based curriculum underscored by multi-disciplinary courses and cross-faculty enrichment. Over 38,000 students from 100 countries enrich the community with their diverse social and cultural perspectives. NUS also strives to create a supportive and innovative environment to promote creative enterprise within its community.",2,SGP,"21 Lower Kent Ridge Rd, Singapore 119077","Term 1: Early August - Early December /n
Term 2: Early January - Early May /n
Term 3: N/A /n",https://www.nus.edu.sg/registrar/calendar,3.3,null,null,null,null,TRUE,null,null,https://www.nus.edu.sg/,https://www.nus.edu.sg/gro/global-programmes/student-exchange/incoming-exchangers,https://www.nus.edu.sg/registrar/docs/info/prospective-students---non-graduating/ng-modules.pdf,12,60,4,,1.2971365,103.7775268,https://caifan.s3.ap-southeast-1.amazonaws.com/UniversityPics/NationalUniversityOfSingapore/1.png,,,,,
Nanyang Technological University,https://upload.wikimedia.org/wikipedia/en/thumb/f/f8/Nanyang_Technological_University_coat_of_arms_vector.svg/1200px-Nanyang_Technological_University_coat_of_arms_vector.svg.png,46,"A great global university founded on science and technology, nurturing leaders and creating societal impact through interdisciplinary education and research.",2,SGP,"50 Nanyang Ave, 639798","Term 1: Early August - Early December /n
Term 2: Early January - Early May /n
Term 3: N/A /n",https://www.ntu.edu.sg/admissions/matriculation/academic-calendars,3.3,30,30,3.70,3.90,TRUE,null,null,https://www.ntu.edu.sg/,https://www.ntu.edu.sg/education/student-exchanges,https://wis.ntu.edu.sg/webexe/owa/aus_subj_cont.main,12,60,3,,1.34415,103.6800792,https://caifan.s3.ap-southeast-1.amazonaws.com/UniversityPics/NanyangTechnologicalUniversity/1.png,,,,,
Singapore Management University,https://www.smu.edu.sg/themes/smubase_4g/svg/logo-d-smu.svg,511,"A premier university in Asia, the Singapore Management University (SMU) is internationally recognised for its world-class research and distinguished teaching. Established in 2000, SMU’s mission is to generate leading-edge research with global impact and to produce broad-based, creative and entrepreneurial leaders for the knowledge-based economy. SMU’s education is known for its highly interactive, collaborative and project-based approach to learning",2,SGP,"81 Victoria St, Singapore 188065","Term 1: Early August - Early December /n
Term 2: Early January - Early May /n
Term 3: N/A /n",https://inet.smu.edu.sg/sites/courses/Documents/Current%20or%20Future%20Academic%20Calendar/2022-2023/2022-23.pdf,3.3,30,30,3.70,3.90,TRUE,null,null,https://www.smu.edu.sg/,https://www.smu.edu.sg/global/student-programmes,https://inet.smu.edu.sg/sites/courses/Pages/Course-Offerings.aspx,1,5,1,,1.2968307,103.8521961,https://caifan.s3.ap-southeast-1.amazonaws.com/UniversityPics/SingaporeManagmentUniversity/1.jpeg,,,,,
Singapore Institute of Technology (SIT),https://upload.wikimedia.org/wikipedia/en/thumb/7/7f/SIT_logo_2.png/150px-SIT_logo_2.png,5870,"The Singapore Institute of Technology (SIT) is Singapore’s first University of Applied Learning, offering specialised degree programmes that prepare its graduates to be work-ready professionals. With a mission to develop individuals and innovate with industry to impact the economy and society in meaningful ways, SIT aims to also be a leader in innovative workplace learning and applied research. The University’s unique pedagogy integrates work and study, embracing authentic learning in a real-world environment through collaborations with key strategic partners. Its focus on applied research with business impact is aimed at helping industry innovate and grow. The University’s centralised campus in Punggol, when ready in 2024, will feature a fit-for-purpose campus within the larger Punggol Digital District, where academia and industry will be tightly integrated with the community.",2,SGP,"10 Dover Dr, Singapore 138683","Term 1: Early August - Early December /n
Term 2: Early January - Early April /n
Term 3: Early May - Early August /n",https://www.singaporetech.edu.sg/admissions/undergraduate/academic-calendar-sit-and-joint-programmes,3.3,30,30,3.70,3.80,null,null,null,https://www.singaporetech.edu.sg/,https://www.singaporetech.edu.sg/life-at-sit/global-experience,https://www.singaporetech.edu.sg/undergraduate-programmes,1,6,1,,1.2999397,103.7798638,https://caifan.s3.ap-southeast-1.amazonaws.com/UniversityPics/SingaporeInstituteOfTechnology/1.jpeg,,,,,
Singapore University of Technology & Design (SUTD),https://upload.wikimedia.org/wikipedia/en/thumb/f/f4/Singapore_University_of_Technology_and_Design_logo.svg/250px-Singapore_University_of_Technology_and_Design_logo.svg.png,1071,"The Singapore University of Technology and Design is established to advance knowledge and nurture technically-grounded leaders and innovators to serve societal needs, with a focus on Design, through an integrated multi-disciplinary curriculum and multi-disciplinary research.",2,SGP,"8 Somapah Rd, Singapore 487372","Term 1: Early September - Early December /n
Term 2: Early January - Early April /n
Term 3: Early May - Early August /n",https://www.sutd.edu.sg/academic-calendar,3.3,30,0,3.70,3.80,null,null,null,https://www.sutd.edu.sg/,https://www.sutd.edu.sg/Student-Development/Global/Student-Exchange/Outbound/GEXP,https://istd.sutd.edu.sg/education/undergraduate/course-catalogue/,36,50,12,,1.3412593,103.9637385,https://caifan.s3.ap-southeast-1.amazonaws.com/UniversityPics/SingaporeUniversityOfTechnology%26Design/1.jpeg,,,,,
Singapore University of Social Sciences,https://upload.wikimedia.org/wikipedia/en/thumb/5/50/SUSS_logo.svg/220px-SUSS_logo.svg.png,6232,"SUSS is a university with a rich heritage in inspiring lifelong education, and transforming society through applied social sciences. We develop students and alumni to be work-ready and work-adaptive, aspiring to reach their full potential, through our 3H's education philosophy – 'Head' for professional competency with applied knowledge, 'Heart' for social awareness to meet the needs of the society, and 'Habit' for passion towards lifelong learning.",2,SGP,"Clementi Rd, #463号, Singapore 599494","Term 1: July - November /n
Term 2: January - May /n
Term 3: N/A /n",https://www.suss.edu.sg/full-time-undergraduate/academic-calendar,3.3,30,30,3.70,3.80,null,null,null,https://www.suss.edu.sg/,https://www.suss.edu.sg/about-suss/college-of-lifelong-experiential-learning/cel/office-of-global-programmes/programmes-for-visiting-students,https://www.suss.edu.sg/courses/course-finder,25,30,5,,1.329081,103.7761967,https://caifan.s3.ap-southeast-1.amazonaws.com/UniversityPics/SingaporeUniversityOfSocialSciences/1.jpeg,,,,,
ESCA School of Mana​gement,https://www.esca.ma/wp-content/uploads/2021/05/NEW-LOGO-esca_Plan-de-travail-1-RVB.jpg,7983,"School recognized by the State, ESCA School of Management is a institution of higher education of reference in the field of management and management in North Africa and in the Mediterranean region. It was founded in 1992 and has more than 3800 graduates and trains each year 1100 students, managers and leaders in its curriculum and through its continuing education department. It aims to train a new generation of high-potential executives in Morocco and Africa, carrying values ​​of modernization, ambition, innovation and a sense of commitment.",1,MAR,"Lot 67-3, Finance City (CFC, Bd de l'Aéropostale, Casablanca 20250, Morocco","Term 1:September - December /n
Term 2: Janurary - March /n
Term 3: N/A /n",https://english.phbs.pku.edu.cn/2018/exchangepartner_0129/488.html,3.0,15,15,3.30,3.85,TRUE,TRUE,TRUE,https://www.esca.ma/en/,https://www.esca.ma/en/global-study-tour/,,30,30,6,,33.5618872,-7.6631987,https://caifan.s3.ap-southeast-1.amazonaws.com/UniversityPics/ESCASchoolOfMana%E2%80%8Bgement/1.webp,,,,,
"University of Pretoria, South Africa​",https://www.up.ac.za/themes/up2.0/images/vertical-logo-bg.png,591,"The University of Pretoria (UP) was established in 1908 with just four professors and 32 students, in a little house called Kya Rosa. Today, it is one of the largest research universities in South Africa. UP has transformed into a dynamic university community of staff and students who come from a range of diverse backgrounds and cultures showcasing South African and global societies. The University was born from a vision to create a space for quality education and for new ideas to flourish. Over the course of its existence, and through different phases of political power and social change, UP has been resilient in its commitment to academic quality.",1,ZAF,"Lynnwood Rd, Hatfield, Pretoria, 0002, South Africa","Term 1:Feburary - June /n
Term 2: July - November /n
Term 3: N/A /n",https://www.eafinder.com/za/university-of-pretoria-academic-calendar/,3.0,15,15,3.30,3.85,FALSE,FALSE,TRUE,https://www.up.ac.za/,https://www.up.ac.za/international-cooperation-division/article/2512050/exchange-and-study-abroad,https://www.eafinder.com/za/courses-offered-at-university-of-pretoria/,120,160,20,,-25.7683563,28.2849735,https://caifan.s3.ap-southeast-1.amazonaws.com/UniversityPics/UniversityOfPretoriaSouthAfrica%E2%80%8B/1.jpg,,,,,
Peking University,https://upload.wikimedia.org/wikipedia/commons/thumb/f/f4/Peking_University_seal.svg/1200px-Peking_University_seal.svg.png,12,"Peking University is China’s first national comprehensive university. Its lineage dates back to the Imperial University of Peking, founded in 1898. After the Revolution of 1911, the university was renamed as the National University of Peking; since 1949, it has been referred to as Peking University. Through that lineage, Peking University is honored as the founding institution of higher education in China in modern times.",2,CHN,"5 Yiheyuan Rd, Haidian District, Beijing, China, 100871","Term 1:September - January /n
Term 2: Feburary - June /n
Term 3: N/A /n",http://115.27.245.13/HOME/CURRENT_STUDENTS/Calendar.htm,3.0,5,5,3.70,3.90,TRUE,TRUE,TRUE,https://en.gsm.pku.edu.cn/index.htm,https://en.gsm.pku.edu.cn/exchange/Incoming_Exchange.htm,https://english.pku.edu.cn/courses.html,4,15,3,,39.99838,116.2904,https://caifan.s3.ap-southeast-1.amazonaws.com/UniversityPics/PekingUniversity/1.jpeg,,,,,
Fudan University,https://www.fudan.edu.cn/_upload/tpl/00/06/6/template6/images/logo.png,34,"Fudan University is a national public research university in Shanghai, China. Fudan is a member of the C9 League, Project 985, Project 211, and the Double First Class University identified by the Ministry of Education of China",2,CHN,"220 Handan Rd, Yangpu District, Shanghai, China, 200437","Term 1:August - January /n
Term 2: Feburary - June /n
Term 3: N/A /n",https://jwc.fudan.edu.cn/_upload/article/files/a1/8d/a09fcab14d54af644724c5939369/9025a493-1024-449c-86b1-3073acabac14.pdf,3.0,15,15,3.60,3.90,TRUE,FALSE,TRUE,https://www.fudan.edu.cn/en/,https://fao.fudan.edu.cn/33/9a/c16087a13210/page.htm,https://fao.fudan.edu.cn/1619/list.htm,6,18,3,,31.296787,121.5037987,https://caifan.s3.ap-southeast-1.amazonaws.com/UniversityPics/FudanUniversity/1.jpeg,,,,,
Waseda University,https://wwwen.uni.lu/media/images/waseda_university_logo2,205,"Waseda University, abbreviated as Sōdai, is a private research university in Shinjuku, Tokyo. Founded in 1882 as the Tōkyō Senmon Gakkō by Ōkuma Shigenobu, the school was formally renamed Waseda University in 1902",2,JPN,"1 Chome-104 Totsukamachi, Shinjuku City, Tokyo 169-8050, Japan","Term 1: April -  July /n
Term 2: September - Feburary /n
Term 3: N/A /n",https://www.waseda.jp/top/en/about/work/organizations/academic-affairs-division/academic-calendar,3.0,15,15,3.60,3.90,TRUE,TRUE,TRUE,https://www.waseda.jp/top/en/,https://www.waseda.jp/inst/cie/en/exchange,https://myeap.eap.ucop.edu/Galileo/service/coursecatalog/Coursecatalog.aspx?direct=yes&partnerid=269&_ga=1.9915574.2008597555.1429635030,5,20,4,,35.7096019,139.7230381,https://caifan.s3.ap-southeast-1.amazonaws.com/UniversityPics/WasedaUniversity/1.jpeg,,,,,
Hokkaido University,https://international-sustainable-campus-network.org/wp-content/uploads/2019/10/hokkaido-university-logo-iscn-international-sustainable-campus-network-member.png,141,"Hokkaido University, or Hokudai, is a Japanese national university in Sapporo, Hokkaido. It was the fifth Imperial University in Japan, which were established to be the nation's finest institutions of higher education or research.",2,JPN,"5 Chome Kita 8 Jonishi, Kita Ward, Sapporo, Hokkaido 060-0808, Japan","Term 1: April -  August /n
Term 2: October - Feburary /n
Term 3: N/A /n",https://www.global.hokudai.ac.jp/admissions/exchange-student-admissions/exchange-programs-in-english-hustep/hustep-calendar/,3.0,10,10,3.60,3.90,TRUE,TRUE,TRUE,https://www.global.hokudai.ac.jp/,https://www.global.hokudai.ac.jp/admissions/exchange-student-admissions/exchange-programs-in-english-hustep/,http://syllabus01.academic.hokudai.ac.jp/Syllabi/Public/Syllabus/SylSearch.aspx,15.75,50,4,,43.0703209,141.3470456,https://caifan.s3.ap-southeast-1.amazonaws.com/UniversityPics/HokkaidoUniversity/1.jpeg,,,,,
Seoul National University,https://upload.wikimedia.org/wikipedia/en/thumb/7/77/Seoul_national_university_emblem.svg/1200px-Seoul_national_university_emblem.svg.png,29,"Seoul National University is a national public research university located in Seoul, South Korea. It is one of the flagship Korean national universities. Founded in 1946, Seoul National University is considered the most prestigious university in South Korea.",2,KOR,"1 Gwanak-ro, Gwanak-gu, Seoul, South Korea","Term 1: March -  June /n
Term 2: June - August /n
Term 3: September - December /n",https://en.snu.ac.kr/academics/resources/calendar,2.5,15,15,3.70,3.90,TRUE,TRUE,TRUE,https://en.snu.ac.kr/,https://en.snu.ac.kr/admission/exchange/programs,https://en.snu.ac.kr/academics/curriculum,null,18,3,,37.4602626,126.9535979,https://caifan.s3.ap-southeast-1.amazonaws.com/UniversityPics/SeoulNationalUniversity/1.jpeg,,,,,
National Taiwan University,https://www.ntu.edu.tw/images/logo.png,77,"National Taiwan University is a national university located in Taipei, Taiwan. NTU has been considered the most comprehensive university on the island. It consists of 11 colleges, 56 departments, 133 graduate institutes, over 60 research centers and a school of professional education and continuing studies.",2,TWN,"No. 1, Section 4, Roosevelt Rd, Da’an District, Taipei City, Taiwan 10617","Term 1: Mid September - Mid January
Term 2: Late February - Mid June
Term 3: N/A",https://oia.ntu.edu.tw/en/internationalstudents/allyouneedtoknow/academiccalendar,3.0,7,8,3.58,3.70,TRUE,null,TRUE,http://www.ntu.edu.tw/,https://oia.ntu.edu.tw/study-abroad/ntu_exchange/outgoing-exchange/info,,6,null,3,,25.0145185,121.53792,https://caifan.s3.ap-southeast-1.amazonaws.com/UniversityPics/NationalTaiwanUniversity/1.jpeg,https://caifan.s3.ap-southeast-1.amazonaws.com/UniversityPics/NationalTaiwanUniversity/2.jpeg,https://caifan.s3.ap-southeast-1.amazonaws.com/UniversityPics/NationalTaiwanUniversity/3.jpeg,https://caifan.s3.ap-southeast-1.amazonaws.com/UniversityPics/NationalTaiwanUniversity/4.webp,https://caifan.s3.ap-southeast-1.amazonaws.com/UniversityPics/NationalTaiwanUniversity/5.webp,https://caifan.s3.ap-southeast-1.amazonaws.com/UniversityPics/NationalTaiwanUniversity/6.jpeg
Australian National University,https://marketing-pages.anu.edu.au/_anu/4/images/logos/2x_anu_logo_small.svg,30,"The Australian National University is a public research university located in Canberra, the capital of Australia. Its main campus in Acton encompasses seven teaching and research colleges, in addition to several national academies and institutes.",7,AUS,"Canberra ACT 2601, Australia","Term 1: Mid July - End November
Term 2: Mid February - End June
Term 3: N/A",,3.0,2,5,,,TRUE,TRUE,TRUE,http://www.anu.edu.au/,https://www.anu.edu.au/study/apply/applying-for-exchange-at-anu,,18,24,6,,-35.2801903,149.1310038,https://caifan.s3.ap-southeast-1.amazonaws.com/UniversityPics/AustralianNationalUniversity/1.jpeg,https://caifan.s3.ap-southeast-1.amazonaws.com/UniversityPics/AustralianNationalUniversity/2.jpeg,https://caifan.s3.ap-southeast-1.amazonaws.com/UniversityPics/AustralianNationalUniversity/3.jpeg,https://caifan.s3.ap-southeast-1.amazonaws.com/UniversityPics/AustralianNationalUniversity/4.webp,https://caifan.s3.ap-southeast-1.amazonaws.com/UniversityPics/AustralianNationalUniversity/5.jpeg,https://caifan.s3.ap-southeast-1.amazonaws.com/UniversityPics/AustralianNationalUniversity/6.jpeg
"University of Melbourne, Faculty of Business and Economics",https://d2glwx35mhbfwf.cloudfront.net/v13.3.0/logo-with-padding.svg,33,"The University of Melbourne is a public research university located in Melbourne, Australia. Founded in 1853, it is Australia's second oldest university and the oldest in Victoria.",7,AUS,"Parkville VIC 3010, Australia","Term 1: Mid July - End November 
Term 2: Mid February - End June 
Term 3: N/A",,3.0,3,6,3.44,4.05,TRUE,TRUE,TRUE,http://www.unimelb.edu.au/,https://study.unimelb.edu.au/how-to-apply/international-exchange-and-study-abroad-applications,https://handbook.unimelb.edu.au/search?types%5B%5D=subject&subject_level_type%5B%5D=Undergraduate+Level+1&subject_level_type%5B%5D=Undergraduate+Level+2&subject_level_type%5B%5D=Undergraduate+Level+3&study_periods%5B%5D=semester_1&study_periods%5B%5D=semester_2&area_of_study%5B%5D=all&org_unit%5B%5D=all&campus_and_attendance_mode%5B%5D=all&subjects_have%5B%5D=no_prerequisites&subjects_have%5B%5D=available_to_inb_exch_students&page=1&sort=_score%7Cdesc,37.5,50,12.5,,-37.7962849,144.9598069,https://caifan.s3.ap-southeast-1.amazonaws.com/UniversityPics/UniversityOfMelbourne/1.jpeg,https://caifan.s3.ap-southeast-1.amazonaws.com/UniversityPics/UniversityOfMelbourne/2.jpeg,https://caifan.s3.ap-southeast-1.amazonaws.com/UniversityPics/UniversityOfMelbourne/3.jpg,https://caifan.s3.ap-southeast-1.amazonaws.com/UniversityPics/UniversityOfMelbourne/4.jpeg,https://caifan.s3.ap-southeast-1.amazonaws.com/UniversityPics/UniversityOfMelbourne/5.jpg,https://caifan.s3.ap-southeast-1.amazonaws.com/UniversityPics/UniversityOfMelbourne/6.jpg
University of Toronto,https://www.utoronto.ca/sites/all/themes/uoft_stark/img/U-of-T-logo.svg,34,"The University of Toronto is a public research university in Toronto, Ontario, Canada, located on the grounds that surround Queen's Park. It was founded by royal charter in 1827 as King's College, the first institution of higher learning in Upper Canada.",6,CAN,"27 King's College Cir, Toronto, ON M5S 1A1, Canada","Term 1: Early September – End December
Term 2: N/A
Term 3: N/A",,2.3,2,0,,,TRUE,TRUE,TRUE,http://www.utoronto.ca/,https://inboundvisiting.utoronto.ca/,https://fas.calendar.utoronto.ca/search-courses,1.5,2.5,0.5,,43.660928,-79.3958992,https://caifan.s3.ap-southeast-1.amazonaws.com/UniversityPics/UniversityOfToronto/1.jpeg,https://caifan.s3.ap-southeast-1.amazonaws.com/UniversityPics/UniversityOfToronto/2.jpeg,https://caifan.s3.ap-southeast-1.amazonaws.com/UniversityPics/UniversityOfToronto/3.webp,https://caifan.s3.ap-southeast-1.amazonaws.com/UniversityPics/UniversityOfToronto/4.jpeg,https://caifan.s3.ap-southeast-1.amazonaws.com/UniversityPics/UniversityOfToronto/5.jpeg,https://caifan.s3.ap-southeast-1.amazonaws.com/UniversityPics/UniversityOfToronto/6.jpeg
University of Pennsylvania (Wharton School),https://www.upenn.edu/themes/custom/penn_starter/assets/img/UPenn-logo.svg,13,"The University of Pennsylvania is a private Ivy League research university in Philadelphia, Pennsylvania. Established in 1740, it is the fourth-oldest institution of higher education in the United States and among the highest ranked universities in the world.",6,USA,"Philadelphia, PA 19104, United States","Term 1: End August - End December
Term 2: Early January - Early May
Term 3: N/A",,3.0,1,0,4.02,4.10,TRUE,TRUE,TRUE,http://www.upenn.edu/,https://global.upenn.edu/pennabroad/exchangeatpenn,https://catalog.upenn.edu/courses/,4,4,1,,39.9583587,-75.1953934,https://caifan.s3.ap-southeast-1.amazonaws.com/UniversityPics/UniversityOfPennsylvania/1.webp,https://caifan.s3.ap-southeast-1.amazonaws.com/UniversityPics/UniversityOfPennsylvania/2.jpeg,https://caifan.s3.ap-southeast-1.amazonaws.com/UniversityPics/UniversityOfPennsylvania/3.jpeg,https://caifan.s3.ap-southeast-1.amazonaws.com/UniversityPics/UniversityOfPennsylvania/4.webp,https://caifan.s3.ap-southeast-1.amazonaws.com/UniversityPics/UniversityOfPennsylvania/5.jpeg,https://caifan.s3.ap-southeast-1.amazonaws.com/UniversityPics/UniversityOfPennsylvania/6.jpeg
University of Southern California (Marshall School of Business),https://www.marshall.usc.edu/themes/custom/usc_base/logo.svg,134,The USC Marshall School of Business is the business school of the University of Southern California. It is accredited by the Association to Advance Collegiate Schools of Business. In 1997 the school was renamed following a $35 million donation from alumnus Gordon S. Marshall.,6,USA,"3670 Trousdale Pkwy, Los Angeles, CA 90089, United States","Term 1: End August - Mid December
Term 2: Early January - Early May
Term 3: N/A",,3.0,5,4,3.94,4.16,TRUE,TRUE,TRUE,http://www.usc.edu/,http://catalogue.usc.edu/,https://www.marshall.usc.edu/current-students/international-programs/international-exchange-program/incoming-students,12,18,3,,34.0188316,-118.2857381,https://caifan.s3.ap-southeast-1.amazonaws.com/UniversityPics/UniversityOfSouthernCalifornia(MarshallSchoolOfBusiness)/1.jpeg,https://caifan.s3.ap-southeast-1.amazonaws.com/UniversityPics/UniversityOfSouthernCalifornia(MarshallSchoolOfBusiness)/2.jpeg,https://caifan.s3.ap-southeast-1.amazonaws.com/UniversityPics/UniversityOfSouthernCalifornia(MarshallSchoolOfBusiness)/3.jpeg,https://caifan.s3.ap-southeast-1.amazonaws.com/UniversityPics/UniversityOfSouthernCalifornia(MarshallSchoolOfBusiness)/4.jpeg,https://caifan.s3.ap-southeast-1.amazonaws.com/UniversityPics/UniversityOfSouthernCalifornia(MarshallSchoolOfBusiness)/5.jpeg,https://caifan.s3.ap-southeast-1.amazonaws.com/UniversityPics/UniversityOfSouthernCalifornia(MarshallSchoolOfBusiness)/6.jpeg
University of Bath,https://www.bath.ac.uk/lens/109/assets/university-of-bath/images/logo/uob-logo-standard.svg,179,"The University of Bath is a public research university located in Bath, Somerset, United Kingdom. It received its royal charter in 1966, along with a number of other institutions following the Robbins Report.",5,GBR,"Claverton Down, Bath BA2 7AY, United Kingdom
","Term 1: End September - End January
Term 2: Early February - End June
Term 3: N/A",,3.0,3,2,3.06,3.06,TRUE,FALSE,TRUE,http://www.bath.ac.uk/,http://www.bath.ac.uk/study/exchange-visiting/,http://www.bath.ac.uk/catalogues/,24,30,6,,51.3793241,-2.3271573,https://caifan.s3.ap-southeast-1.amazonaws.com/UniversityPics/UniversityOfBath/1.jpeg,https://caifan.s3.ap-southeast-1.amazonaws.com/UniversityPics/UniversityOfBath/2.jpeg,https://caifan.s3.ap-southeast-1.amazonaws.com/UniversityPics/UniversityOfBath/3.jpeg,https://caifan.s3.ap-southeast-1.amazonaws.com/UniversityPics/UniversityOfBath/4.jpeg,https://caifan.s3.ap-southeast-1.amazonaws.com/UniversityPics/UniversityOfBath/5.jpeg,https://caifan.s3.ap-southeast-1.amazonaws.com/UniversityPics/UniversityOfBath/6.jpeg
Trinity College Dublin,https://www.tcd.ie/assets/php/tcd-header-footer/2013e-ghp/img/tcd-logo.png?v=1,98,"Trinity College, officially The Provost, Fellows, Foundation Scholars and the other members of Board, of the College of the Holy and Undivided Trinity of Queen Elizabeth near Dublin, is the sole constituent college of the University of Dublin, a research university in Dublin, Ireland.",5,IRL,"College Green, Dublin 2, Ireland","Term 1: Mid September - Mid December
Term 2: Mid January - Mid April
Term 3: N/A",,3.1,6,6,3.43,3.57,FALSE,FALSE,TRUE,http://www.tcd.ie/,http://www.tcd.ie/study/non-eu/study-abroad/to-trinity/,http://www.tcd.ie/study/non-eu/study-abroad/to-trinity/ModuleDirectory/index.php,25,30,5,,53.3444923,-6.2611326,https://caifan.s3.ap-southeast-1.amazonaws.com/UniversityPics/TrinityCollegeDublin/1.jpeg,https://caifan.s3.ap-southeast-1.amazonaws.com/UniversityPics/TrinityCollegeDublin/2.jpeg,https://caifan.s3.ap-southeast-1.amazonaws.com/UniversityPics/TrinityCollegeDublin/3.jpeg,https://caifan.s3.ap-southeast-1.amazonaws.com/UniversityPics/TrinityCollegeDublin/4.jpeg,https://caifan.s3.ap-southeast-1.amazonaws.com/UniversityPics/TrinityCollegeDublin/5.jpeg,https://caifan.s3.ap-southeast-1.amazonaws.com/UniversityPics/TrinityCollegeDublin/6.jpeg
University of St. Gallen,https://www.unisg.ch/-/media/93125423859d46928371a633b15cfcb1.jpg,501,"The University of St. Gallen is a public research university located in St. Gallen, Switzerland. Established in 1898, it specialises in business administration, economics, law, and international affairs. In 2020, it had 9,047 students, of which 3,443 were master's students and 617 doctoral students.",5,CHE,"Dufourstrasse 50, 9000 St. Gallen, Switzerland","Term 1: Early September - End December
Term 2: Early February - End May
Term 3: N/A ",,null,50,30,2.76,3.85,TRUE,FALSE,TRUE,http://unisg.ch/en,http://www.exchange.unisg.ch/,,16,40,5,,47.4312345,9.3740597,https://caifan.s3.ap-southeast-1.amazonaws.com/UniversityPics/UniversityOfStGallen/1.jpeg,https://caifan.s3.ap-southeast-1.amazonaws.com/UniversityPics/UniversityOfStGallen/2.jpeg,https://caifan.s3.ap-southeast-1.amazonaws.com/UniversityPics/UniversityOfStGallen/3.jpeg,https://caifan.s3.ap-southeast-1.amazonaws.com/UniversityPics/UniversityOfStGallen/4.jpeg,https://caifan.s3.ap-southeast-1.amazonaws.com/UniversityPics/UniversityOfStGallen/5.jpeg,https://caifan.s3.ap-southeast-1.amazonaws.com/UniversityPics/UniversityOfStGallen/6.jpeg
"University College London, School of Management",https://www.mgmt.ucl.ac.uk/sites/all/themes/msi/images/ucl-logo-white.png,8,"The UCL School of Management is the business school of University College London and is located in Canary Wharf and Bloomsbury, London. The school offers undergraduate, postgraduate, executive and PhD programmes in management with a focus on innovation, technology, analytics and entrepreneurship.",5,GBR,"Level 38 and Level 50, One Canada Square, London E14 5AA, United Kingdom","Term 1: Early September - End December
Term 2: Mid January - End March
Term 3: End April - Early June",,3.6,2,2,3.78,4.09,TRUE,FALSE,TRUE,http://www.ucl.ac.uk/,http://www.ucl.ac.uk/prospective-students/international/affiliate/exchange/,https://www.mgmt.ucl.ac.uk/study/affiliates,60,60,15,,51.5049489,-0.0195006,https://caifan.s3.ap-southeast-1.amazonaws.com/UniversityPics/UniversityCollegeLondonSchoolOfManagement/1.png,https://caifan.s3.ap-southeast-1.amazonaws.com/UniversityPics/UniversityCollegeLondonSchoolOfManagement/2.jpeg,https://caifan.s3.ap-southeast-1.amazonaws.com/UniversityPics/UniversityCollegeLondonSchoolOfManagement/3.jpeg,https://caifan.s3.ap-southeast-1.amazonaws.com/UniversityPics/UniversityCollegeLondonSchoolOfManagement/4.jpeg,https://caifan.s3.ap-southeast-1.amazonaws.com/UniversityPics/UniversityCollegeLondonSchoolOfManagement/5.jpeg,https://caifan.s3.ap-southeast-1.amazonaws.com/UniversityPics/UniversityCollegeLondonSchoolOfManagement/6.png
IT University of Copenhagen,https://upload.wikimedia.org/wikipedia/commons/thumb/8/88/Logo_IT_University_of_Copenhagen.jpg/1600px-Logo_IT_University_of_Copenhagen.jpg,82,"The IT University of Copenhagen (ITU) was established in 1999 and is Denmark’s leading university focusing on IT research and education. We deliver state-of-the-art teaching and research within computer science, business IT and digital design.",5,DNK,"Rued Langgaards Vej 7, 2300 København, Denmark","Term 1: Early September - End January
Term 2: Early Feburary - End June
Term 3: N/A",,3.0,2,2,3.70,3.90,FALSE,TRUE,TRUE,https://en.itu.dk/,"https://en.itu.dk/programmes/exchange-students/become-an-exchange-student-at-itu#:~:text=The%20IT%20University%20welcomes%20exchange,bilateral%20partnership%20agreement%20with%20us.",https://en.itu.dk/programmes/exchange-students/become-an-exchange-student-at-itu,30,30,6,null,55.6597,12.5915,https://caifan.s3.ap-southeast-1.amazonaws.com/UniversityPics/ITUniversityOfCopenhagen/1.jpeg,https://caifan.s3.ap-southeast-1.amazonaws.com/UniversityPics/ITUniversityOfCopenhagen/2.jpeg,https://caifan.s3.ap-southeast-1.amazonaws.com/UniversityPics/ITUniversityOfCopenhagen/3.jpeg,https://caifan.s3.ap-southeast-1.amazonaws.com/UniversityPics/ITUniversityOfCopenhagen/4.jpeg,https://caifan.s3.ap-southeast-1.amazonaws.com/UniversityPics/ITUniversityOfCopenhagen/5.jpeg,https://caifan.s3.ap-southeast-1.amazonaws.com/UniversityPics/ITUniversityOfCopenhagen/6.jpg
University of Glasgow,https://www.scotwest.co.uk/wp-content/uploads/2016/10/uni-of-glasgow-white.jpg,84,"The University of Glasgow is the fourth oldest university in the English-speaking world, founded in 1451. Based in Scotland’s largest city, the University of Glasgow is one of the world’s top 100 universities and currently has 26,000 students from over 120 different countries enrolled. Glasgow is also a member of the prestigious Russell Group of UK research universities.",5,GBR,"Glasgow G12 8QQ, United Kingdom","Term 1: Early September - Mid December
Term 2: Early January - End May
Term 3: N/A",https://www.gla.ac.uk/myglasgow/senateoffice/sessiondates/,3.2,2,2,3.70,4.00,TRUE,FALSE,TRUE,https://www.gla.ac.uk/,https://www.gla.ac.uk/international/abroadexchange/,http://www.glasgow.ac.uk/coursecatalogue,60,70,10,null,55.8717,4.2883,https://caifan.s3.ap-southeast-1.amazonaws.com/UniversityPics/UniversityOfGlasgow/1.jpeg,https://caifan.s3.ap-southeast-1.amazonaws.com/UniversityPics/UniversityOfGlasgow/2.jpeg,https://caifan.s3.ap-southeast-1.amazonaws.com/UniversityPics/UniversityOfGlasgow/3.jpeg,https://caifan.s3.ap-southeast-1.amazonaws.com/UniversityPics/UniversityOfGlasgow/4.jpeg,https://caifan.s3.ap-southeast-1.amazonaws.com/UniversityPics/UniversityOfGlasgow/5.jpeg,https://caifan.s3.ap-southeast-1.amazonaws.com/UniversityPics/UniversityOfGlasgow/6.jpeg
KTH Royal Institute of Technology,https://www.kth.se/polopoly_fs/1.77259.1610365240!/KTH_Logotyp_RGB_2013-2.svg,89,"The Royal Institute of Technology, also known as KTH, is a public institution that was founded in 1827. The science-, engineering- and technology-focused university’s main campus is located in central Stockholm. Additional sites are the Kista, Haninge, Flemingsberg, Albanova and Södertälje campuses. In a recent year, more than 12,000 full-time students attended the university, 32 percent of whom were women. Students from European Union and European Economic Area countries as well as Switzerland are not charged tuition at KTH; all other students are. Some university student housing is available, and tuition-paying students are guaranteed housing from KTH Accommodation.",5,SWE,"Brinellvägen 8, 114 28 Stockholm, Sweden","Term 1: Late August - Mid January
Term 2: Mid January - Mid June
Term 3: N/A",https://www.kth.se/en/student/studier/schema/lasarsindelning/lasaret-2022-2023-1.1010678,null,5,5,3.70,4.00,TRUE,TRUE,TRUE,https://www.kth.se/en,https://www.kth.se/en/studies/exchange/exchange-studies-at-kth-1.6519,https://www.kth.se/en/studies/exchange/courses,null,30,6,null,59.3499,18.0703,https://caifan.s3.ap-southeast-1.amazonaws.com/UniversityPics/KTHRoyalInstituteOfTechnology/1.jpeg,https://caifan.s3.ap-southeast-1.amazonaws.com/UniversityPics/KTHRoyalInstituteOfTechnology/2.jpeg,https://caifan.s3.ap-southeast-1.amazonaws.com/UniversityPics/KTHRoyalInstituteOfTechnology/3.jpeg,https://caifan.s3.ap-southeast-1.amazonaws.com/UniversityPics/KTHRoyalInstituteOfTechnology/4.jpg,https://caifan.s3.ap-southeast-1.amazonaws.com/UniversityPics/KTHRoyalInstituteOfTechnology/5.jpg,https://caifan.s3.ap-southeast-1.amazonaws.com/UniversityPics/KTHRoyalInstituteOfTechnology/6.jpeg